MOLNIYA 2-9             
1 07276U 74026A   20147.44782076 -.00000077  00000-0  00000-0 0  9998
2 07276  64.0370 343.6936 6804780 288.0884  12.5909  2.45094160230955
MOLNIYA 2-10            
1 07376U 74056A   20154.13228904  .00000646  00000-0  00000-0 0  9992
2 07376  63.5625 170.0094 6728589 292.4924  12.0094  2.01195503335373
MOLNIYA 1-S             
1 07392U 74060A   20154.61235366  .00000014  00000-0  00000+0 0  9996
2 07392   6.9172 293.7113 0009099 180.3300  62.7518  1.00202747112046
MOLNIYA 1-29            
1 07780U 75036A   20154.48322818 -.00000434  00000-0 -16633-2 0  9995
2 07780  62.9737 313.7377 7374108 288.2092   9.2703  2.00622641330673
MOLNIYA 2-14            
1 08195U 75081A   20154.42491812 -.00000231  00000-0 -33814-2 0  9996
2 08195  63.0970 280.8244 7286496 292.9876   8.8668  2.02109355327851
MOLNIYA 1-32            
1 08601U 76006A   20154.09888164 -.00001491  00000-0  10181-3 0  9990
2 08601  62.6727  52.4107 7409225 278.9326  11.2657  2.00049132 37803
MOLNIYA 1-36            
1 09880U 77021A   20154.57375638 -.00001812  00000-0  38440-4 0  9994
2 09880  62.4934  23.5934 7483429 284.4869   9.5023  2.00526804214462
MOLNIYA 3-8             
1 10455U 77105A   20154.35375673 -.00001147  00000-0 -10663-2 0  9999
2 10455  62.3130 112.8957 7261272 276.3705  12.9465  2.00662239312207
MOLNIYA 1-40            
1 10925U 78055A   20154.01208971 -.00000145  00000-0  00000-0 0  9993
2 10925  62.5253 148.8219 7051151 278.0977  13.9003  2.00707017307735
MOLNIYA 3-10            
1 11057U 78095A   20154.35318176  .00000402  00000-0  15173-3 0  9995
2 11057  62.7996 322.5289 5952262 298.4337  14.5780  4.09651638353203
MOLNIYA 3-13            
1 11896U 80063A   20154.24606050 -.00000036  00000-0  00000+0 0  9996
2 11896  62.5893 231.0756 7161177 275.5516  13.9685  2.00652089292192
MOLNIYA 1-49            
1 12156U 81009A   20154.45631959  .00000018  00000-0  22336-2 0  9994
2 12156  62.1011 275.9792 7226084 252.3668  22.6833  2.05707207206169
MOLNIYA 1-52            
1 13012U 81123A   20151.79081501  .00001156  00000-0  00000-0 0  9995
2 13012  63.4875  29.8325 7250089 248.5775  24.4527  2.00595535281571
MOLNIYA 1-53            
1 13070U 82015A   20154.49804536 -.00000399  00000-0 -10256-3 0  9998
2 13070  62.3215 322.9041 7462941 275.9423  11.5540  2.00349314280314
MOLNIYA 3-20            
1 13875U 83015A   20153.96226351  .00001099  00000-0  00000+0 0  9994
2 13875  63.5447 102.4079 7147094 255.5538  21.8010  2.00766182208793
MOLNIYA 1-56            
1 13890U 83019A   20151.19505951 -.00001067  00000-0  00000-0 0  9991
2 13890  63.2219 127.7541 7122381 260.4542 297.0069  1.99927022271633
MOLNIYA 1-62            
1 15214U 84089A   20152.12498205  .00001238  00000-0  16593-2 0  9993
2 15214  62.7217 135.3670 7278025 264.7545  16.5500  1.97946776229465
MOLNIYA 1-63            
1 15429U 84124A   20154.78413142  .00000975  00000-0  00000-0 0  9993
2 15429  63.6966 236.9919 6598405 266.4558 345.5953  2.00370164259813
MOLNIYA 3-24            
1 15738U 85040A   20151.20573233  .00000151  00000-0  00000-0 0  9992
2 15738  63.8522 208.4627 6470929 252.1622  31.3622  2.55630183284743
MOLNIYA 3-27            
1 16393U 85117A   20151.10924896  .00000207  00000-0  00000-0 0  9991
2 16393  64.6572 167.1304 6541290 257.1069  27.3788  2.12400223258289
MOLNIYA 1-69            
1 17078U 86089A   20152.49592326  .00001223  00000-0  00000-0 0  9992
2 17078  64.1438 258.0549 6717047 266.1953  20.9880  2.00820658245827
MOLNIYA 3-31            
1 17328U 87008A   20154.19107861  .00000142  00000-0  00000+0 0  9995
2 17328  63.8274 207.0602 6696044 260.6217  23.8531  2.00660042240940
MOLNIYA 1-71            
1 18946U 88017A   20154.18498125  .00000072  00000-0  00000+0 0  9990
2 18946  63.5085 207.7176 6823409 261.2988  22.2558  2.00571300236143
MOLNIYA 1-75            
1 19807U 89014A   20153.83405647  .00000790  00000-0  00000+0 0  9990
2 19807  64.3469  13.3696 7051654 271.4318  15.9443  2.00443711229125
MOLNIYA 1-80            
1 21118U 91012A   20154.16116248 -.00000503  00000-0  00000+0 0  9995
2 21118  64.3609  58.1566 6864847 286.1599  12.8818  2.05241907215700
MOLNIYA 3-40            
1 21196U 91022A   20153.05833503  .00000042  00000-0  00000-0 0  9997
2 21196  64.5259  51.2866 6901927 283.1086  13.4790  2.02993669214548
MOLNIYA 1-81            
1 21426U 91043A   20154.32945970 -.00000017  00000-0  00000-0 0  9992
2 21426  64.0157  77.6868 6996667 271.9965  16.2810  2.00623658212218
MOLNIYA 3-41            
1 21706U 91065A   20154.62096412  .00000039  00000-0  00000-0 0  9991
2 21706  64.1780 243.5635 6764889 264.6927  21.2414  2.04346186211693
MOLNIYA 3-42            
1 22178U 92067A   20154.44920225 -.00000106  00000-0  00000-0 0  9992
2 22178  64.7289 301.3178 6746645 277.7117  16.1495  2.20432455 63755
MOLNIYA 1-86            
1 22671U 93035A   20154.80245652 -.00000069  00000-0 -42649-4 0  9998
2 22671  63.1530 307.4080 4830030 356.4813   1.0432  5.62601141310402
MOLNIYA 1-87            
1 22949U 93079A   20154.24537027  .00001359  00000-0  00000+0 0  9993
2 22949  63.3981 174.0826 6829489 289.0808  12.3184  2.02863299194168
MOLNIYA 1-88            
1 23420U 94081A   20154.48991718 -.00000058  00000-0  00000+0 0  9995
2 23420  64.1300   8.6372 6023566 294.1936  15.5733  3.34492174222024
MOLNIYA 3-47            
1 23642U 95042A   20154.05970359 -.00000169  00000-0  00000+0 0  9993
2 23642  63.2556 157.6158 6823031 288.3720  12.5095  2.01983804182055
MOLNIYA 1-90            
1 24960U 97054A   20154.47506743 -.00000100  00000-0  51595-4 0  9995
2 24960  63.4679 341.9805 6374168 300.7157  11.6639  3.18683647184269
MOLNIYA 1-91            
1 25485U 98054A   20153.36250820 -.00000084  00000-0  57010-4 0  9997
2 25485  62.8185 275.4047 7109826 288.9890  10.6904  2.36440888160743
MOLNIYA 3-50            
1 25847U 99036A   20152.88802688  .00000237  00000-0 -16031-2 0  9997
2 25847  62.3041  94.3412 7351354 275.4084  12.5931  2.00673719153145
